[{"OBJECT_NAME":"STARLINK-31380","OBJECT_ID":"2024-031Q","EPOCH":"2026-03-09T21:37:33.114144","MEAN_MOTION":15.3019278,"ECCENTRICITY":0.00010479,"INCLINATION":53.1595,"RA_OF_ASC_NODE":295.8448,"ARG_OF_PERICENTER":100.3993,"MEAN_ANOMALY":259.7126,"EPHEMERIS_TYPE":0,"CLASSIFICATION_TYPE":"U","NORAD_CAT_ID":58979,"ELEMENT_SET_NO":999,"REV_AT_EPOCH":11654,"BSTAR":8.7825199e-5,"MEAN_MOTION_DOT":2.242e-5,"MEAN_MOTION_DDOT":0},{"OBJECT_NAME":"OBJECT A","OBJECT_ID":"2025-234A","EPOCH":"2026-03-09T23:03:34.210368","MEAN_MOTION":15.32505956,"ECCENTRICITY":0.00130678,"INCLINATION":97.4388,"RA_OF_ASC_NODE":139.352,"ARG_OF_PERICENTER":148.634,"MEAN_ANOMALY":211.5684,"EPHEMERIS_TYPE":0,"CLASSIFICATION_TYPE":"U","NORAD_CAT_ID":66053,"ELEMENT_SET_NO":999,"REV_AT_EPOCH":2164,"BSTAR":0.0014840662,"MEAN_MOTION_DOT":0.00046856,"MEAN_MOTION_DDOT":0}]
